[{"OBJECT_NAME":"GAOFEN-11 05","OBJECT_ID":"2024-130A","EPOCH":"2026-03-09T22:37:47.360064","MEAN_MOTION":15.23784242,"ECCENTRICITY":0.00077059,"INCLINATION":97.4051,"RA_OF_ASC_NODE":148.5891,"ARG_OF_PERICENTER":100.8064,"MEAN_ANOMALY":259.4041,"EPHEMERIS_TYPE":0,"CLASSIFICATION_TYPE":"U","NORAD_CAT_ID":60249,"ELEMENT_SET_NO":999,"REV_AT_EPOCH":7035,"BSTAR":0.00034401659,"MEAN_MOTION_DOT":8.217e-5,"MEAN_MOTION_DDOT":0},{"OBJECT_NAME":"YAOGAN-43 02E","OBJECT_ID":"2024-156E","EPOCH":"2026-03-09T13:12:54.412128","MEAN_MOTION":15.23060161,"ECCENTRICITY":0.0005405,"INCLINATION":34.9961,"RA_OF_ASC_NODE":104.8049,"ARG_OF_PERICENTER":120.2112,"MEAN_ANOMALY":239.9138,"EPHEMERIS_TYPE":0,"CLASSIFICATION_TYPE":"U","NORAD_CAT_ID":60949,"ELEMENT_SET_NO":999,"REV_AT_EPOCH":8424,"BSTAR":0.00066597,"MEAN_MOTION_DOT":0.00016075,"MEAN_MOTION_DDOT":0}]
